start=new Date('2022-09-24T00:00:00.000Z').valueOf();
sats=[{"MEAN_MOTION_DOT":"-0.00183922","NORAD_CAT_ID":"53542","ELEMENT_SET_NO":"999","LAUNCH_DATE":"2022-08-19","PERIOD":"91.526","CLASSIFICATION_TYPE":"U","EPOCH":"2022-09-23T22:00:00.999936","CENTER_NAME":"EARTH","FILE":"3581511","COUNTRY_CODE":"US","BSTAR":"-0.00132750000000","EPHEMERIS_TYPE":"0","APOAPSIS":"351.880","MEAN_ANOMALY":"95.8178","DECAY_DATE":null,"TLE_LINE2":"2 53542  53.2172 340.9037 0003644   6.0352  95.8178 15.73316246  5551","MEAN_ELEMENT_THEORY":"SGP4","MEAN_MOTION":"15.73316246","ARG_OF_PERICENTER":"6.0352","REV_AT_EPOCH":"555","MEAN_MOTION_DDOT":"0.0000000000000","ECCENTRICITY":"0.00036440","TLE_LINE1":"1 53542U 22101R   22266.91667824 -.00183922  00000-0 -13275-2 0  9993","OBJECT_TYPE":"PAYLOAD","RCS_SIZE":"LARGE","INCLINATION":"53.2172","TIME_SYSTEM":"UTC","OBJECT_ID":"2022-101R","GP_ID":"213308120","SITE":"AFETR","SEMIMAJOR_AXIS":"6727.564","REF_FRAME":"TEME","RA_OF_ASC_NODE":"340.9037","OBJECT_NAME":"STARLINK-4489","PERIAPSIS":"346.977"},{"MEAN_MOTION_DOT":"-0.00155811","NORAD_CAT_ID":"53543","ELEMENT_SET_NO":"999","LAUNCH_DATE":"2022-08-19","CLASSIFICATION_TYPE":"U","PERIOD":"91.528","EPOCH":"2022-09-23T22:00:00.999936","CENTER_NAME":"EARTH","FILE":"3581512","COUNTRY_CODE":"US","BSTAR":"-0.00112140000000","EPHEMERIS_TYPE":"0","APOAPSIS":"351.853","DECAY_DATE":null,"MEAN_ANOMALY":"98.2648","TLE_LINE2":"2 53543  53.2173 340.9068 0003503   1.7884  98.2648 15.73292653  5557","MEAN_ELEMENT_THEORY":"SGP4","MEAN_MOTION":"15.73292653","ARG_OF_PERICENTER":"1.7884","REV_AT_EPOCH":"555","MEAN_MOTION_DDOT":"0.0000000000000","OBJECT_TYPE":"PAYLOAD","TLE_LINE1":"1 53543U 22101S   22266.91667824 -.00155811  00000-0 -11214-2 0  9991","ECCENTRICITY":"0.00035030","RCS_SIZE":"LARGE","INCLINATION":"53.2173","TIME_SYSTEM":"UTC","OBJECT_ID":"2022-101S","GP_ID":"213308523","SEMIMAJOR_AXIS":"6727.631","SITE":"AFETR","REF_FRAME":"TEME","RA_OF_ASC_NODE":"340.9068","OBJECT_NAME":"STARLINK-4297","PERIAPSIS":"347.139"},{"RCS_SIZE":"LARGE","INCLINATION":"53.2177","TIME_SYSTEM":"UTC","OBJECT_ID":"2022-101T","GP_ID":"213336461","SITE":"AFETR","SEMIMAJOR_AXIS":"6727.633","REF_FRAME":"TEME","RA_OF_ASC_NODE":"340.9016","OBJECT_NAME":"STARLINK-4303","PERIAPSIS":"347.122","MEAN_ANOMALY":"93.5918","DECAY_DATE":null,"TLE_LINE2":"2 53544  53.2177 340.9016 0003532   9.4513  93.5918 15.73291865  1302","MEAN_ELEMENT_THEORY":"SGP4","MEAN_MOTION":"15.73291865","ARG_OF_PERICENTER":"9.4513","REV_AT_EPOCH":"130","MEAN_MOTION_DDOT":"0.0000000000000","TLE_LINE1":"1 53544U 22101T   22266.91667824 -.00146569  00000-0 -10535-2 0  9997","OBJECT_TYPE":"PAYLOAD","ECCENTRICITY":"0.00035320","EPOCH":"2022-09-23T22:00:00.999936","CENTER_NAME":"EARTH","FILE":"3581681","COUNTRY_CODE":"US","BSTAR":"-0.00105350000000","EPHEMERIS_TYPE":"0","APOAPSIS":"351.874","MEAN_MOTION_DOT":"-0.00146569","NORAD_CAT_ID":"53544","ELEMENT_SET_NO":"999","LAUNCH_DATE":"2022-08-19","CLASSIFICATION_TYPE":"U","PERIOD":"91.528"},{"OBJECT_NAME":"STARLINK-4475","PERIAPSIS":"347.377","RA_OF_ASC_NODE":"340.9049","REF_FRAME":"TEME","SEMIMAJOR_AXIS":"6727.710","GP_ID":"213337040","SITE":"AFETR","INCLINATION":"53.2177","TIME_SYSTEM":"UTC","OBJECT_ID":"2022-101U","RCS_SIZE":"LARGE","OBJECT_TYPE":"PAYLOAD","TLE_LINE1":"1 53545U 22101U   22266.91667824 -.00069516  00000-0 -49342-3 0  9993","ECCENTRICITY":"0.00032680","MEAN_MOTION_DDOT":"0.0000000000000","REV_AT_EPOCH":"130","ARG_OF_PERICENTER":"8.0674","TLE_LINE2":"2 53545  53.2177 340.9049 0003268   8.0674  93.1155 15.73264896  1301","MEAN_ELEMENT_THEORY":"SGP4","MEAN_MOTION":"15.73264896","MEAN_ANOMALY":"93.1155","DECAY_DATE":null,"APOAPSIS":"351.774","EPHEMERIS_TYPE":"0","COUNTRY_CODE":"US","BSTAR":"-0.00049342000000","FILE":"3581681","CENTER_NAME":"EARTH","EPOCH":"2022-09-23T22:00:00.999936","LAUNCH_DATE":"2022-08-19","PERIOD":"91.529","CLASSIFICATION_TYPE":"U","ELEMENT_SET_NO":"999","NORAD_CAT_ID":"53545","MEAN_MOTION_DOT":"-0.00069516"},{"MEAN_MOTION_DDOT":"0.0000000000000","ECCENTRICITY":"0.00041560","TLE_LINE1":"1 53546U 22101V   22266.91667824 -.00020078  00000-0 -13869-3 0  9999","OBJECT_TYPE":"PAYLOAD","REV_AT_EPOCH":"556","ARG_OF_PERICENTER":"359.4651","DECAY_DATE":null,"MEAN_ANOMALY":"269.5305","MEAN_MOTION":"15.73230551","MEAN_ELEMENT_THEORY":"SGP4","TLE_LINE2":"2 53546  53.2177 339.8228 0004156 359.4651 269.5305 15.73230551  5562","RA_OF_ASC_NODE":"339.8228","PERIAPSIS":"346.877","OBJECT_NAME":"STARLINK-4477","REF_FRAME":"TEME","SITE":"AFETR","GP_ID":"213308536","SEMIMAJOR_AXIS":"6727.808","RCS_SIZE":"LARGE","OBJECT_ID":"2022-101V","INCLINATION":"53.2177","TIME_SYSTEM":"UTC","PERIOD":"91.531","CLASSIFICATION_TYPE":"U","LAUNCH_DATE":"2022-08-19","NORAD_CAT_ID":"53546","ELEMENT_SET_NO":"999","MEAN_MOTION_DOT":"-0.00020078","EPHEMERIS_TYPE":"0","APOAPSIS":"352.469","BSTAR":"-0.00013869000000","COUNTRY_CODE":"US","CENTER_NAME":"EARTH","FILE":"3581513","EPOCH":"2022-09-23T22:00:00.999936"},{"FILE":"3581513","CENTER_NAME":"EARTH","EPOCH":"2022-09-23T22:00:00.999936","APOAPSIS":"351.948","EPHEMERIS_TYPE":"0","BSTAR":"-0.00017123000000","COUNTRY_CODE":"US","ELEMENT_SET_NO":"999","NORAD_CAT_ID":"53547","MEAN_MOTION_DOT":"-0.00024619","PERIOD":"91.532","CLASSIFICATION_TYPE":"U","LAUNCH_DATE":"2022-08-19","SITE":"AFETR","GP_ID":"213308533","SEMIMAJOR_AXIS":"6727.820","OBJECT_ID":"2022-101W","INCLINATION":"53.2174","TIME_SYSTEM":"UTC","RCS_SIZE":"LARGE","PERIAPSIS":"347.422","OBJECT_NAME":"STARLINK-4474","RA_OF_ASC_NODE":"340.9033","REF_FRAME":"TEME","ARG_OF_PERICENTER":"6.3092","MEAN_MOTION":"15.73226276","TLE_LINE2":"2 53547  53.2174 340.9033 0003364   6.3092  96.1860 15.73226276  5552","MEAN_ELEMENT_THEORY":"SGP4","MEAN_ANOMALY":"96.1860","DECAY_DATE":null,"ECCENTRICITY":"0.00033640","TLE_LINE1":"1 53547U 22101W   22266.91667824 -.00024619  00000-0 -17123-3 0  9992","OBJECT_TYPE":"PAYLOAD","MEAN_MOTION_DDOT":"0.0000000000000","REV_AT_EPOCH":"555"},{"COUNTRY_CODE":"US","BSTAR":"-0.00075157000000","EPHEMERIS_TYPE":"0","APOAPSIS":"351.874","EPOCH":"2022-09-23T22:00:00.999936","CENTER_NAME":"EARTH","FILE":"3581532","LAUNCH_DATE":"2022-08-19","PERIOD":"91.529","CLASSIFICATION_TYPE":"U","MEAN_MOTION_DOT":"-0.00105183","NORAD_CAT_ID":"53548","ELEMENT_SET_NO":"999","REF_FRAME":"TEME","RA_OF_ASC_NODE":"340.8980","OBJECT_NAME":"STARLINK-4513","PERIAPSIS":"347.204","RCS_SIZE":"LARGE","INCLINATION":"53.2172","TIME_SYSTEM":"UTC","OBJECT_ID":"2022-101X","SITE":"AFETR","GP_ID":"213308755","SEMIMAJOR_AXIS":"6727.674","REV_AT_EPOCH":"555","MEAN_MOTION_DDOT":"0.0000000000000","TLE_LINE1":"1 53548U 22101X   22266.91667824 -.00105183  00000-0 -75157-3 0  9990","ECCENTRICITY":"0.00034710","OBJECT_TYPE":"PAYLOAD","MEAN_ANOMALY":"96.6449","DECAY_DATE":null,"MEAN_ELEMENT_THEORY":"SGP4","TLE_LINE2":"2 53548  53.2172 340.8980 0003471   8.7537  96.6449 15.73277501  5555","MEAN_MOTION":"15.73277501","ARG_OF_PERICENTER":"8.7537"},{"DECAY_DATE":null,"MEAN_ANOMALY":"99.9997","MEAN_MOTION":"15.73295907","TLE_LINE2":"2 53549  53.2172 340.8979 0003311   3.5686  99.9997 15.73295907  1308","MEAN_ELEMENT_THEORY":"SGP4","ARG_OF_PERICENTER":"3.5686","REV_AT_EPOCH":"130","MEAN_MOTION_DDOT":"0.0000000000000","OBJECT_TYPE":"PAYLOAD","TLE_LINE1":"1 53549U 22101Y   22266.91667824 -.00137763  00000-0 -98880-3 0  9998","ECCENTRICITY":"0.00033110","RCS_SIZE":"LARGE","OBJECT_ID":"2022-101Y","INCLINATION":"53.2172","TIME_SYSTEM":"UTC","SITE":"AFETR","GP_ID":"213336625","SEMIMAJOR_AXIS":"6727.622","REF_FRAME":"TEME","RA_OF_ASC_NODE":"340.8979","PERIAPSIS":"347.259","OBJECT_NAME":"STARLINK-4516","MEAN_MOTION_DOT":"-0.00137763","NORAD_CAT_ID":"53549","ELEMENT_SET_NO":"999","CLASSIFICATION_TYPE":"U","PERIOD":"91.528","LAUNCH_DATE":"2022-08-19","EPOCH":"2022-09-23T22:00:00.999936","CENTER_NAME":"EARTH","FILE":"3581681","BSTAR":"-0.00098880000000","COUNTRY_CODE":"US","EPHEMERIS_TYPE":"0","APOAPSIS":"351.714"},{"CENTER_NAME":"EARTH","FILE":"3581681","EPOCH":"2022-09-23T22:00:00.999936","EPHEMERIS_TYPE":"0","APOAPSIS":"351.886","COUNTRY_CODE":"US","BSTAR":"-0.00074289000000","NORAD_CAT_ID":"53550","ELEMENT_SET_NO":"999","MEAN_MOTION_DOT":"-0.00104104","LAUNCH_DATE":"2022-08-19","PERIOD":"91.527","CLASSIFICATION_TYPE":"U","SEMIMAJOR_AXIS":"6727.602","GP_ID":"213337369","SITE":"AFETR","RCS_SIZE":"LARGE","INCLINATION":"53.2170","TIME_SYSTEM":"UTC","OBJECT_ID":"2022-101Z","RA_OF_ASC_NODE":"340.8953","OBJECT_NAME":"STARLINK-4518","PERIAPSIS":"347.048","REF_FRAME":"TEME","ARG_OF_PERICENTER":"4.8542","DECAY_DATE":null,"MEAN_ANOMALY":"101.0816","TLE_LINE2":"2 53550  53.2170 340.8953 0003596   4.8542 101.0816 15.73302820  1308","MEAN_ELEMENT_THEORY":"SGP4","MEAN_MOTION":"15.73302820","MEAN_MOTION_DDOT":"0.0000000000000","ECCENTRICITY":"0.00035960","TLE_LINE1":"1 53550U 22101Z   22266.91667824 -.00104104  00000-0 -74289-3 0  9990","OBJECT_TYPE":"PAYLOAD","REV_AT_EPOCH":"130"},{"OBJECT_NAME":"STARLINK-4514","PERIAPSIS":"346.975","RA_OF_ASC_NODE":"340.8997","REF_FRAME":"TEME","SITE":"AFETR","GP_ID":"213337205","SEMIMAJOR_AXIS":"6727.592","INCLINATION":"53.2177","TIME_SYSTEM":"UTC","OBJECT_ID":"2022-101AA","RCS_SIZE":"LARGE","TLE_LINE1":"1 53551U 22101AA  22266.91667824 -.00113011  00000-0 -80753-3 0  9991","OBJECT_TYPE":"PAYLOAD","ECCENTRICITY":"0.00036890","MEAN_MOTION_DDOT":"0.0000000000000","REV_AT_EPOCH":"130","ARG_OF_PERICENTER":"4.6754","MEAN_ELEMENT_THEORY":"SGP4","TLE_LINE2":"2 53551  53.2177 340.8997 0003689   4.6754  99.4914 15.73306501  1309","MEAN_MOTION":"15.73306501","MEAN_ANOMALY":"99.4914","DECAY_DATE":null,"APOAPSIS":"351.938","EPHEMERIS_TYPE":"0","COUNTRY_CODE":"US","BSTAR":"-0.00080753000000","FILE":"3581681","CENTER_NAME":"EARTH","EPOCH":"2022-09-23T22:00:00.999936","LAUNCH_DATE":"2022-08-19","CLASSIFICATION_TYPE":"U","PERIOD":"91.527","ELEMENT_SET_NO":"999","NORAD_CAT_ID":"53551","MEAN_MOTION_DOT":"-0.00113011"}];
